SatCatId,ObjectName,LaunchYear,OrbitalPeriod,LaunchMass,StatusCode,Inclination,Status,UcsData,OrbitClassEstimated,LaunchSiteCountry,Owner,UseType,Purpose,LaunchVehicleClass,TLE1,TLE2,MeanMotion,Eccentricity,OrbitClass
17239,COSMOS 1808,1986,104.94,-1.0,UNK,82.93,Inactive,0,LEO,Russia,Russia/USSR,Unknown,Unknown,Unknown,1 17239U 86100A   25145.86254267  .00000048  00000+0  36140-4 0  9993,2 17239  82.9335  97.9414 0031762 214.4998 163.4649 13.72205285924300,13.72205285,0.0031762,LEO
17241,COSMOS 1809,1986,104.01,-1.0,UNK,82.53,Inactive,0,LEO,Russia,Russia/USSR,Unknown,Unknown,Unknown,1 17241U 86101A   25145.85506359  .00000077  00000+0  55177-4 0  9991,2 17241  82.5312 229.1471 0015938 163.5177 314.3477 13.84438356941233,13.84438356,0.0015938,LEO
9057,NOAA 5,1976,116.33,-1.0,-,102.26,Inactive,0,LEO,USA,USA,Unknown,Unknown,Unknown,1 09057U 76077A   25145.87066726 -.00000044  00000+0  12333-4 0  9991,2 09057 102.2571 125.3553 0009644 331.1915  57.0872 12.37817937206556,12.37817937,0.0009644,LEO
9061,COSMOS 846,1976,104.6,-1.0,UNK,82.93,Inactive,0,LEO,Russia,Russia/USSR,Unknown,Unknown,Unknown,1 09061U 76078A   25145.79676069  .00000073  00000+0  58741-4 0  9999,2 09061  82.9316 348.8956 0041268 178.6936 192.4116 13.76614347721939,13.76614347,0.0041268,LEO
25460,ST-1,1998,1458.23,-1.0,-,10.26,Inactive,0,GSO,French Guiana,Singapore/Taiwan,Unknown,Unknown,Unknown,1 25460U 98049A   25145.53082023 -.00000261  00000+0  00000+0 0  9995,2 25460  10.2572  48.6765 0010804 331.8771 202.8198  0.98750093 41247,0.98750093,0.0010804,GSO
25467,IRIDIUM 82,1998,94.05,-1.0,-,86.37,Inactive,0,LEO,USA,USA,Unknown,Unknown,Unknown,1 25467U 98051A   25145.68567966  .00027125  00000+0  79593-3 0  9999,2 25467  86.3651 120.7937 0088114  24.5602 335.9803 15.31158670420515,15.3115867,0.0088114,LEO
25473,INTELSAT 7 (IS-7),1998,1466.24,-1.0,-,9.56,Inactive,0,GSO,French Guiana,USA,Unknown,Unknown,Unknown,1 25473U 98052A   25145.81691878 -.00000108  00000+0  00000+0 0  9998,2 25473   9.5614  55.7236 0004739 161.7709  75.5981  0.98210157 96823,0.98210157,0.0004739,GSO
25475,ORBCOMM FM21,1998,100.19,45.0,-,45.01,Inactive,1,LEO,Eastern Range Airspace,ORBCOMM,Commercial,Communications,Pegasus,1 25475U 98053A   25145.84787380  .00000770  00000+0  30303-3 0  9995,2 25475  45.0098  15.2814 0001562  86.0230 274.0797 14.37309044394361,14.37309044,0.0001562,LEO
25476,ORBCOMM FM22,1998,100.12,-1.0,-,45.01,Inactive,0,LEO,Eastern Range Airspace,ORBCOMM,Unknown,Unknown,Unknown,1 25476U 98053B   25145.97041589  .00000902  00000+0  33995-3 0  9991,2 25476  45.0088   9.7321 0003403 102.7706 257.3523 14.38336804394076,14.38336804,0.0003403,LEO
25477,ORBCOMM FM23,1998,100.17,45.0,-,45.01,Inactive,1,LEO,Eastern Range Airspace,ORBCOMM,Commercial,Communications,Pegasus,1 25477U 98053C   25145.78190905  .00000868  00000+0  33448-3 0  9992,2 25477  45.0096  17.7482 0002547  90.8576 269.2564 14.37487009394174,14.37487009,0.0002547,LEO
25478,ORBCOMM FM24,1998,100.14,-1.0,-,45.01,Inactive,0,LEO,Eastern Range Airspace,ORBCOMM,Unknown,Unknown,Unknown,1 25478U 98053D   25145.79830503  .00000814  00000+0  31287-3 0  9999,2 25478  45.0095  15.2477 0002286  97.3249 262.7859 14.38051138394222,14.38051138,0.0002286,LEO
25479,ORBCOMM FM25,1998,100.14,-1.0,-,45.01,Inactive,0,LEO,Eastern Range Airspace,ORBCOMM,Unknown,Unknown,Unknown,1 25479U 98053E   25145.83873092  .00000798  00000+0  30777-3 0  9999,2 25479  45.0086  13.3238 0004393 122.3497 237.7777 14.38026353394527,14.38026353,0.0004393,LEO
25480,ORBCOMM FM26,1998,100.2,-1.0,-,45.01,Inactive,0,LEO,Eastern Range Airspace,ORBCOMM,Unknown,Unknown,Unknown,1 25480U 98053F   25145.97469515  .00000684  00000+0  27555-3 0  9991,2 25480  45.0081   8.9782 0005955 145.7213 214.4020 14.37096359394455,14.37096359,0.0005955,LEO
17290,METEOR 2-15,1987,103.95,-1.0,UNK,82.47,Inactive,0,LEO,Russia,Russia/USSR,Unknown,Unknown,Unknown,1 17290U 87001A   25145.69990397  .00000045  00000+0  26229-4 0  9997,2 17290  82.4689  47.5223 0013062 174.8171 185.3127 13.85233863940183,13.85233863,0.0013062,LEO
25482,ORBCOMM FM28,1998,100.12,-1.0,-,45.01,Inactive,0,LEO,Eastern Range Airspace,ORBCOMM,Unknown,Unknown,Unknown,1 25482U 98053H   25145.79803966  .00000754  00000+0  29215-3 0  9998,2 25482  45.0064 311.2620 0005345 182.3777 177.7047 14.38250032395131,14.38250032,0.0005345,LEO
25485,MOLNIYA 1-91,1998,609.03,-1.0,UNK,64.49,Inactive,0,MEO,Russia,Russia/USSR,Unknown,Unknown,Unknown,1 25485U 98054A   25144.54548048 -.00000157  00000+0  00000+0 0  9996,2 25485  64.4864 342.4946 6789851 287.6945  12.7839  2.36440160204388,2.3644016,0.6789851,MEO
17295,COSMOS 1812,1987,92.69,-1.0,UNK,82.5,Inactive,0,LEO,Russia,Russia/USSR,Unknown,Unknown,Unknown,1 17295U 87003A   25145.56268342  .00024952  00000+0  39159-3 0  9996,2 17295  82.4956 145.1074 0005132 101.9190 258.2639 15.53511535 99539,15.53511535,0.0005132,LEO
25489,STEX,1998,99.22,-1.0,-,84.99,Inactive,0,LEO,USA,USA,Unknown,Unknown,Unknown,1 25489U 98055A   25145.91311370  .00000447  00000+0  10688-3 0  9997,2 25489  84.9853 206.6961 0007000 253.9909 106.0523 14.51324776407504,14.51324776,0.0007,LEO
25491,EUTELSAT W2,1998,1450.67,-1.0,-,10.94,Inactive,0,GSO,French Guiana,EUTELSAT,Unknown,Unknown,Unknown,1 25491U 98056A   25145.01258156 -.00000246  00000+0  00000+0 0  9995,2 25491  10.9378  41.3851 0002866 169.0375  16.4856  0.99264513 97001,0.99264513,0.0002866,GSO
25492,SIRIUS 3,1998,1454.0,-1.0,-,11.12,Inactive,0,GSO,French Guiana,SES,Unknown,Unknown,Unknown,1 25492U 98056B   25145.37463172 -.00000158  00000+0  00000+0 0  9993,2 25492  11.1204  37.2490 0003125  50.9145 294.9134  0.99037308 97279,0.99037308,0.0003125,GSO
17303,COSMOS 1814,1987,100.29,-1.0,UNK,74.06,Inactive,0,LEO,Russia,Russia/USSR,Unknown,Unknown,Unknown,1 17303U 87006A   25145.58237725  .00000123  00000+0  51206-4 0  9994,2 17303  74.0559 248.2408 0023583  82.9104 277.4729 14.35841301  6609,14.35841301,0.0023583,LEO
25495,EUTELSAT 4B,1998,1462.57,-1.0,-,9.66,Inactive,0,GSO,USA,EUTELSAT,Unknown,Unknown,Unknown,1 25495U 98057A   25145.41155525 -.00000140  00000+0  00000+0 0  9993,2 25495   9.6562  54.2993 0014581  24.6890 143.4522  0.98456900 96642,0.984569,0.0014581,GSO
25501,UFO 9 (USA 140),1998,1466.72,-1.0,-,10.85,Inactive,0,GSO,USA,USA,Unknown,Unknown,Unknown,1 25501U 98058A   25145.43847939 -.00000182  00000+0  00000+0 0  9997,2 25501  10.8506  23.2137 0011881 352.0168 352.7180  0.98178054 96011,0.98178054,0.0011881,GSO
25503,MAQSAT 3 & ARIANE 5 R/B,1998,641.21,-1.0,UNK,7.66,Inactive,0,MEO,French Guiana,France,Unknown,Unknown,Unknown,1 25503U 98059A   25143.76622082 -.00000134  00000+0  00000+0 0  9991,2 25503   7.6604  26.4312 7020005 252.5205  24.5195  2.24574877218219,2.24574877,0.7020005,MEO
25509,SEDSAT 1 (SO-33),1998,100.5,-1.0,-,31.43,Inactive,0,LEO,USA,USA,Unknown,Unknown,Unknown,1 25509U 98061B   25145.76396914  .00000751  00000+0  12858-3 0  9996,2 25509  31.4310 162.3627 0338209 260.5415  95.6833 14.32851357390218,14.32851357,0.0338209,LEO
25515,AFRISTAR,1998,1454.42,-1.0,-,9.38,Inactive,0,GSO,French Guiana,USA,Unknown,Unknown,Unknown,1 25515U 98063A   25145.53447718 -.00000210  00000+0  00000+0 0  9992,2 25515   9.3774  53.2206 0002558  55.3658 278.4950  0.99008712 96714,0.99008712,0.0002558,GSO
25516,AMC-5 (GE-5),1998,1449.63,-1.0,-,10.69,Inactive,0,GSO,French Guiana,SES,Unknown,Unknown,Unknown,1 25516U 98063B   25145.00988828 -.00000264  00000+0  00000+0 0  9996,2 25516  10.6923  43.3768 0004065  20.7165 147.7964  0.99335650 96978,0.9933565,0.0004065,GSO
17328,MOLNIYA 3-31,1987,717.82,-1.0,UNK,62.71,Inactive,0,MEO,Russia,Russia/USSR,Unknown,Unknown,Unknown,1 17328U 87008A   25143.54308787 -.00000839  00000+0 -57007-3 0  9994,2 17328  62.7071 335.0400 7427435 255.4890  18.8529  2.00607636277353,2.00607636,0.7427435,MEO
25520,PAN SAT (PO-34),1998,92.36,-1.0,-,28.44,Inactive,0,LEO,USA,USA,Unknown,Unknown,Unknown,1 25520U 98064B   25145.63222208  .00016409  00000+0  19840-3 0  9997,2 25520  28.4357 235.2692 0002081  34.8045 325.2694 15.59040659479543,15.59040659,0.0002081,LEO
25522,INTELSAT 8 (IS-8),1998,1512.85,-1.0,-,8.15,Inactive,0,HEO,Kazakhstan,USA,Unknown,Unknown,Unknown,1 25522U 98065A   25145.88035575 -.00000087  00000+0  00000+0 0  9996,2 25522   8.1514  67.6348 0281829 295.7404 259.6801  0.95184876 95689,0.95184876,0.0281829,HEO
25546,BONUM-1,1998,1453.95,-1.0,-,10.07,Inactive,0,GSO,USA,Russia/USSR,Unknown,Unknown,Unknown,1 25546U 98068A   25145.01388477 -.00000224  00000+0  00000+0 0  9995,2 25546  10.0728  49.8189 0004497   8.0096 176.1422  0.99040857 96693,0.99040857,0.0004497,GSO
17359,COSMOS 1816,1987,104.76,-1.0,UNK,82.92,Inactive,0,LEO,Russia,Russia/USSR,Unknown,Unknown,Unknown,1 17359U 87009A   25145.70677801  .00000159  00000+0  15091-3 0  9995,2 17359  82.9224 312.0550 0031861 206.9483 163.4762 13.74633037921920,13.74633037,0.0031861,LEO
25558,EUTELSAT 115 WEST A,1998,1458.68,-1.0,-,9.46,Inactive,0,GSO,French Guiana,EUTELSAT,Unknown,Unknown,Unknown,1 25558U 98070A   25145.87575596  .00000040  00000+0  00000+0 0  9990,2 25558   9.4625  55.5911 0005188  42.7238 156.2021  0.98719336 96634,0.98719336,0.0005188,GSO
17369,COSMOS 1818,1987,100.57,-1.0,UNK,65.01,Inactive,0,LEO,Kazakhstan,Russia/USSR,Unknown,Unknown,Unknown,1 17369U 87011A   25145.75213364 -.00000050  00000+0  18914-4 0  9993,2 17369  65.0112 252.9422 0015120 254.9819 104.9592 14.31804917 53327,14.31804917,0.001512,LEO
25567,NADEZHDA 5,1998,104.95,-1.0,-,82.95,Inactive,0,LEO,Russia,Russia/USSR,Unknown,Unknown,Unknown,1 25567U 98072A   25145.76972605  .00000037  00000+0  23998-4 0  9994,2 25567  82.9492  13.2835 0027142 102.1345 303.1748 13.72042281324549,13.72042281,0.0027142,LEO
25568,ASTRID 2,1998,104.88,-1.0,UNK,82.95,Inactive,0,LEO,Russia,Sweden,Unknown,Unknown,Unknown,1 25568U 98072B   25145.69315568  .00000153  00000+0  14869-3 0  9991,2 25568  82.9505   9.7079 0026306  83.1489 337.4880 13.73048582324798,13.73048582,0.0026306,LEO
